CSS (TIANHE)            
1 48274U 21035A   24274.58828846  .00065883  00000+0  69462-3 0  9993
2 48274  41.4665 160.3931 0003469  67.3549 292.7657 15.63302624195580
